HST                     
1 20580U 90037B   26129.80266005  .00005313  00000+0  16829-3 0  9991
2 20580  28.4760 342.8246 0002189  75.4822 284.6017 15.30338732782685
